INTELSAT 36 (IS-36)     
1 41747C 16053A   22083.00000000  .00000065  00000-0  00000-0 0   838
2 41747   0.0237  35.2495 0001168 333.5431 241.1563  1.00271572    11
INTELSAT 36 (IS-36) [PM]
1 41747C 16053A   22083.33064815  .00000029  00000-0  00000-0 0   838
2 41747   0.0265   9.4451 0001434 355.8790   3.9807  1.00271719    16
INTELSAT 33E            
1 41748C 16053B   22080.00000000  .00000141  00000-0  00000-0 0   808
2 41748   0.0462 337.9821 0001439  42.5457 217.9578  1.00273415    18
INTELSAT 33E        [PM]
1 41748C 16053B   22082.35571759  .00000197  00000-0  00000-0 0   825
2 41748   0.0406 358.5368 0001657  20.8930 349.4369  1.00269852    17
INTELSAT 33E            
1 41748C 16053B   22083.00000000  .00000141  00000-0  00000-0 0   834
2 41748   0.0374 348.0037 0001663  33.5958 219.8393  1.00270082    10
INTELSAT 32E            
1 41945C 17007B   22080.00000000 -.00000172  00000-0  00000-0 0   802
2 41945   0.0000 178.0910 0000362 235.6752  81.5543  1.00270668    19
INTELSAT 32E        [PM]
1 41945C 17007B   22082.84491898 -.00000179  00000-0  00000-0 0   824
2 41945   0.0150 107.5633 0000691 293.7732  40.9331  1.00274327    12
INTELSAT 32E            
1 41945C 17007B   22083.00000000 -.00000179  00000-0  00000-0 0   835
2 41945   0.0162 111.0997 0000581 324.8266  62.3304  1.00269863    11
INTELSAT 35E            
1 42818C 17041A   22080.00000000 -.00000148  00000-0  00000-0 0   803
2 42818   0.0186 222.1056 0001429 147.6358 134.2475  1.00270684    13
INTELSAT 35E        [PM]
1 42818C 17041A   22082.67616898 -.00000148  00000-0  00000-0 0   828
2 42818   0.0116 196.5771 0001258 178.5618  14.9029  1.00272852    14
INTELSAT 35E            
1 42818C 17041A   22083.00000000 -.00000148  00000-0  00000-0 0   839
2 42818   0.0121 194.1471 0001248 182.4162 130.3777  1.00272718    12
INTELSAT 37E            
1 42950C 17059A   22080.00000000 -.00003859  00000-0  00000-0 0   801
2 42950   0.0454   5.3999 0002349   9.5058 145.5648  1.00272694    10
INTELSAT 37E            
1 42950C 17059A   22083.00000000 -.00000064  00000-0  00000-0 0   832
2 42950   0.0076 136.0056 0002360 245.1103 142.3160  1.00272235    13
INTELSAT 37E        [PM]
1 42950C 17059A   22086.34861111 -.00000051  00000-0  00000-0 0   869
2 42950   0.0034 174.1596 0002270 213.1859 264.8891  1.00271459    10
AZERSPACE 2 (IS-38)     
1 43632C 18074A   22080.00000000  .00000234  00000-0  00000-0 0   800
2 43632   0.0000 178.2534 0001492 195.5703 209.7744  1.00271043    18
AZERSPACE 2 (IS-38)     
1 43632C 18074A   22083.00000000  .00000227  00000-0  00000-0 0   838
2 43632   0.0105 123.8319 0001493 260.2527 202.4649  1.00271525    15
HORIZONS-3E             
1 43633C 18074B   22080.00000000  .00000030  00000-0  00000-0 0   805
2 43633   0.0191 309.8518 0000859  70.2112 327.4189  1.00269829    13
HORIZONS-3E             
1 43633C 18074B   22083.00000000  .00000029  00000-0  00000-0 0   839
2 43633   0.0175   4.7419 0000900  20.6958 325.0048  1.00269658    18
INTELSAT 39 (IS-39)     
1 44476C 19049B   22080.00000000  .00000063  00000-0  00000-0 0   800
2 44476   0.0042 225.3900 0001019 282.2073  92.8369  1.00271445    11
INTELSAT 39 (IS-39) [PM]
1 44476C 19049B   22082.26384259  .00000085  00000-0  00000-0 0   827
2 44476   0.0000 207.1624 0000859 289.6783 200.8029  1.00272278    15
INTELSAT 39 (IS-39)     
1 44476C 19049B   22083.00000000  .00000047  00000-0  00000-0 0   838
2 44476   0.0000 188.5268 0001063 316.7906  98.0670  1.00270837    16
GALAXY 30 (G-30)        
1 46114C 20056C   22080.00000000 -.00002702  00000-0  00000-0 0   804
2 46114   0.0007 135.2269 0001918 231.5818  46.6879  1.00271301    16
GALAXY 30 (G-30)    [PM]
1 46114C 20056C   22082.12847222  .00000129  00000-0  00000-0 0   826
2 46114   0.0059 233.1565 0001896 143.7172  84.9628  1.00270391    17
GALAXY 30 (G-30)        
1 46114C 20056C   22083.00000000  .00000121  00000-0  00000-0 0   832
2 46114   0.0007 211.9815 0001913 167.3172  37.1426  1.00270515    18
